{"type": "FeatureCollection", "features": [ {"type": "Feature", "properties": {"norad_id": 66727, "name": "FLOCK 4H-24", "group": "last-30-days", "lat": 80.7604675093124, "lon": -55.34751551337187, "alt_km": 508.18629671998497, "timestamp": "2025-12-25T14:48:23.569570+00:00", "meta": {"OBJECT_NAME": "FLOCK 4H-24", "OBJECT_ID": "2025-276BP", "EPOCH": "2025-12-25T04:53:27.328128", "MEAN_MOTION": 15.17354427, "ECCENTRICITY": 0.00028645, "INCLINATION": 97.4437, "RA_OF_ASC_NODE": 70.7594, "ARG_OF_PERICENTER": 250.4974, "MEAN_ANOMALY": 109.5951, "EPHEMERIS_TYPE": 0, "CLASSIFICATION_TYPE": "U", "NORAD_CAT_ID": 66727, "ELEMENT_SET_NO": 999, "REV_AT_EPOCH": 401, "BSTAR": 0.00031402805, "MEAN_MOTION_DOT": 6.203e-05, "MEAN_MOTION_DDOT": 0}, "tle": {"line1": "1 66727U 25276BP  25359.20378852  .00006203  00000+0  31403-3 0  9993", "line2": "2 66727  97.4437  70.7594 0002864 250.4974 109.5951 15.17354427  4011"}}, "geometry": {"type": "Point", "coordinates": [-55.34751551337187, 80.7604675093124]}}, {"type": "Feature", "properties": {"norad_id": 66728, "name": "FLOCK 4H-25", "group": "last-30-days", "lat": -1.3378959568944016, "lon": -108.99130243923427, "alt_km": 513.9311513967841, "timestamp": "2025-12-25T14:48:23.569579+00:00", "meta": {"OBJECT_NAME": "FLOCK 4H-25", "OBJECT_ID": "2025-276BQ", "EPOCH": "2025-12-25T06:06:07.447968", "MEAN_MOTION": 15.18242017, "ECCENTRICITY": 0.00017673, "INCLINATION": 97.4393, "RA_OF_ASC_NODE": 70.8269, "ARG_OF_PERICENTER": 115.099, "MEAN_ANOMALY": 245.0428, "EPHEMERIS_TYPE": 0, "CLASSIFICATION_TYPE": "U", "NORAD_CAT_ID": 66728, "ELEMENT_SET_NO": 999, "REV_AT_EPOCH": 330, "BSTAR": 0.00030581436, "MEAN_MOTION_DOT": 6.195e-05, "MEAN_MOTION_DDOT": 0}, "tle": {"line1": "1 66728U 25276BQ  25359.25425287  .00006195  00000+0  30581-3 0  9990", "line2": "2 66728  97.4393  70.8269 0001767 115.0990 245.0428 15.18242017  3306"}}, "geometry": {"type": "Point", "coordinates": [-108.99130243923427, -1.3378959568944016]}}, {"type": "Feature", "properties": {"norad_id": 66729, "name": "FLOCK 4H-26", "group": "last-30-days", "lat": 74.5432108053986, "lon": 42.9406073223461, "alt_km": 509.75555084595453, "timestamp": "2025-12-25T14:48:23.569589+00:00", "meta": {"OBJECT_NAME": "FLOCK 4H-26", "OBJECT_ID": "2025-276BR", "EPOCH": "2025-12-25T04:58:24.570048", "MEAN_MOTION": 15.17183301, "ECCENTRICITY": 0.00036772, "INCLINATION": 97.4388, "RA_OF_ASC_NODE": 70.7362, "ARG_OF_PERICENTER": 249.9083, "MEAN_ANOMALY": 110.1755, "EPHEMERIS_TYPE": 0, "CLASSIFICATION_TYPE": "U", "NORAD_CAT_ID": 66729, "ELEMENT_SET_NO": 999, "REV_AT_EPOCH": 401, "BSTAR": 0.00052153608, "MEAN_MOTION_DOT": 0.00010301, "MEAN_MOTION_DDOT": 0}, "tle": {"line1": "1 66729U 25276BR  25359.20722882  .00010301  00000+0  52154-3 0  9991", "line2": "2 66729  97.4388  70.7362 0003677 249.9083 110.1755 15.17183301  4019"}}, "geometry": {"type": "Point", "coordinates": [42.9406073223461, 74.5432108053986]}}, {"type": "Feature", "properties": {"norad_id": 66730, "name": "FLOCK 4H-27", "group": "last-30-days", "lat": 11.503238978561685, "lon": -107.30749620889775, "alt_km": 512.2974063981464, "timestamp": "2025-12-25T14:48:23.569599+00:00", "meta": {"OBJECT_NAME": "FLOCK 4H-27", "OBJECT_ID": "2025-276BS", "EPOCH": "2025-12-25T06:09:29.491776", "MEAN_MOTION": 15.1811644, "ECCENTRICITY": 0.00014109, "INCLINATION": 97.4367, "RA_OF_ASC_NODE": 70.8151, "ARG_OF_PERICENTER": 124.0054, "MEAN_ANOMALY": 236.1314, "EPHEMERIS_TYPE": 0, "CLASSIFICATION_TYPE": "U", "NORAD_CAT_ID": 66730, "ELEMENT_SET_NO": 999, "REV_AT_EPOCH": 402, "BSTAR": 0.00050954844, "MEAN_MOTION_DOT": 0.00010335, "MEAN_MOTION_DDOT": 0}, "tle": {"line1": "1 66730U 25276BS  25359.25659134  .00010335  00000+0  50955-3 0  9991", "line2": "2 66730  97.4367  70.8151 0001410 124.0054 236.1314 15.18116440  4021"}}, "geometry": {"type": "Point", "coordinates": [-107.30749620889775, 11.503238978561685]}}, {"type": "Feature", "properties": {"norad_id": 66731, "name": "FLOCK 4H-28", "group": "last-30-days", "lat": 75.9145109201174, "lon": 39.759302360296694, "alt_km": 509.37649647922626, "timestamp": "2025-12-25T14:48:23.569608+00:00", "meta": {"OBJECT_NAME": "FLOCK 4H-28", "OBJECT_ID": "2025-276BT", "EPOCH": "2025-12-25T03:23:00.743712", "MEAN_MOTION": 15.17168941, "ECCENTRICITY": 0.00031843, "INCLINATION": 97.4377, "RA_OF_ASC_NODE": 70.6678, "ARG_OF_PERICENTER": 251.5024, "MEAN_ANOMALY": 108.5864, "EPHEMERIS_TYPE": 0, "CLASSIFICATION_TYPE": "U", "NORAD_CAT_ID": 66731, "ELEMENT_SET_NO": 999, "REV_AT_EPOCH": 400, "BSTAR": 0.00047532577, "MEAN_MOTION_DOT": 9.377e-05, "MEAN_MOTION_DDOT": 0}, "tle": {"line1": "1 66731U 25276BT  25359.14098083  .00009377  00000+0  47533-3 0  9992", "line2": "2 66731  97.4377  70.6678 0003184 251.5024 108.5864 15.17168941  4000"}}, "geometry": {"type": "Point", "coordinates": [39.759302360296694, 75.9145109201174]}}, {"type": "Feature", "properties": {"norad_id": 66732, "name": "FLOCK 4H-29", "group": "last-30-days", "lat": 80.70578777028499, "lon": 18.171742232258914, "alt_km": 514.286913676241, "timestamp": "2025-12-25T14:48:23.569617+00:00", "meta": {"OBJECT_NAME": "FLOCK 4H-29", "OBJECT_ID": "2025-276BU", "EPOCH": "2025-12-25T03:20:02.590368", "MEAN_MOTION": 15.15055725, "ECCENTRICITY": 0.00128636, "INCLINATION": 97.4377, "RA_OF_ASC_NODE": 70.6688, "ARG_OF_PERICENTER": 22.189, "MEAN_ANOMALY": 337.9896, "EPHEMERIS_TYPE": 0, "CLASSIFICATION_TYPE": "U", "NORAD_CAT_ID": 66732, "ELEMENT_SET_NO": 999, "REV_AT_EPOCH": 400, "BSTAR": -0.095432657, "MEAN_MOTION_DOT": -0.01622447, "MEAN_MOTION_DDOT": 0}, "tle": {"line1": "1 66732U 25276BU  25359.13891887 -.01622447  00000+0 -95433-1 0  9997", "line2": "2 66732  97.4377  70.6688 0012863  22.1890 337.9896 15.15055725  4005"}}, "geometry": {"type": "Point", "coordinates": [18.171742232258914, 80.70578777028499]}}, {"type": "Feature", "properties": {"norad_id": 66733, "name": "FLOCK 4H-30", "group": "last-30-days", "lat": 81.10204616414526, "lon": 14.540142232925664, "alt_km": 508.7713450336378, "timestamp": "2025-12-25T14:48:23.569626+00:00", "meta": {"OBJECT_NAME": "FLOCK 4H-30", "OBJECT_ID": "2025-276BV", "EPOCH": "2025-12-25T08:00:01.000224", "MEAN_MOTION": 15.17310768, "ECCENTRICITY": 0.00031871, "INCLINATION": 97.4429, "RA_OF_ASC_NODE": 70.8792, "ARG_OF_PERICENTER": 252.5097, "MEAN_ANOMALY": 84.544, "EPHEMERIS_TYPE": 0, "CLASSIFICATION_TYPE": "U", "NORAD_CAT_ID": 66733, "ELEMENT_SET_NO": 999, "REV_AT_EPOCH": 345, "BSTAR": -0.0026476612, "MEAN_MOTION_DOT": -0.00052435, "MEAN_MOTION_DDOT": 0}, "tle": {"line1": "1 66733U 25276BV  25359.33334491 -.00052435  00000+0 -26477-2 0  9999", "line2": "2 66733  97.4429  70.8792 0003187 252.5097  84.5440 15.17310768  3450"}}, "geometry": {"type": "Point", "coordinates": [14.540142232925664, 81.10204616414526]}}, {"type": "Feature", "properties": {"norad_id": 66734, "name": "FLOCK 4H-31", "group": "last-30-days", "lat": 81.94623894211436, "lon": 3.7548606252728804, "alt_km": 507.1789998994318, "timestamp": "2025-12-25T14:48:23.569635+00:00", "meta": {"OBJECT_NAME": "FLOCK 4H-31", "OBJECT_ID": "2025-276BW", "EPOCH": "2025-12-25T04:55:54.481152", "MEAN_MOTION": 15.17757467, "ECCENTRICITY": 0.00055282, "INCLINATION": 97.4363, "RA_OF_ASC_NODE": 70.7299, "ARG_OF_PERICENTER": 224.6378, "MEAN_ANOMALY": 135.4412, "EPHEMERIS_TYPE": 0, "CLASSIFICATION_TYPE": "U", "NORAD_CAT_ID": 66734, "ELEMENT_SET_NO": 999, "REV_AT_EPOCH": 401, "BSTAR": 0.015730662, "MEAN_MOTION_DOT": 0.00332193, "MEAN_MOTION_DDOT": 0}, "tle": {"line1": "1 66734U 25276BW  25359.20549168  .00332193  00000+0  15731-1 0  9995", "line2": "2 66734  97.4363  70.7299 0005528 224.6378 135.4412 15.17757467  4011"}}, "geometry": {"type": "Point", "coordinates": [3.7548606252728804, 81.94623894211436]}}, {"type": "Feature", "properties": {"norad_id": 66735, "name": "FLOCK 4H-32", "group": "last-30-days", "lat": 79.97302829152973, "lon": 23.481150799433824, "alt_km": 509.0549869328761, "timestamp": "2025-12-25T14:48:23.569645+00:00", "meta": {"OBJECT_NAME": "FLOCK 4H-32", "OBJECT_ID": "2025-276BX", "EPOCH": "2025-12-25T04:56:38.059584", "MEAN_MOTION": 15.17259873, "ECCENTRICITY": 0.00035321, "INCLINATION": 97.4423, "RA_OF_ASC_NODE": 70.7501, "ARG_OF_PERICENTER": 247.8287, "MEAN_ANOMALY": 112.2572, "EPHEMERIS_TYPE": 0, "CLASSIFICATION_TYPE": "U", "NORAD_CAT_ID": 66735, "ELEMENT_SET_NO": 999, "REV_AT_EPOCH": 401, "BSTAR": 0.00055610179, "MEAN_MOTION_DOT": 0.00011013, "MEAN_MOTION_DDOT": 0}, "tle": {"line1": "1 66735U 25276BX  25359.20599606  .00011013  00000+0  55610-3 0  9995", "line2": "2 66735  97.4423  70.7501 0003532 247.8287 112.2572 15.17259873  4012"}}, "geometry": {"type": "Point", "coordinates": [23.481150799433824, 79.97302829152973]}}, {"type": "Feature", "properties": {"norad_id": 66736, "name": "FLOCK 4H-33", "group": "last-30-days", "lat": -4.711522101129942, "lon": -109.42135211777088, "alt_km": 512.9539562275068, "timestamp": "2025-12-25T14:48:23.569654+00:00", "meta": {"OBJECT_NAME": "FLOCK 4H-33", "OBJECT_ID": "2025-276BY", "EPOCH": "2025-12-25T06:05:15.367776", "MEAN_MOTION": 15.18326813, "ECCENTRICITY": 0.00028066, "INCLINATION": 97.4421, "RA_OF_ASC_NODE": 70.8385, "ARG_OF_PERICENTER": 151.5892, "MEAN_ANOMALY": 208.5495, "EPHEMERIS_TYPE": 0, "CLASSIFICATION_TYPE": "U", "NORAD_CAT_ID": 66736, "ELEMENT_SET_NO": 999, "REV_AT_EPOCH": 402, "BSTAR": 0.0005492554, "MEAN_MOTION_DOT": 0.00011215, "MEAN_MOTION_DDOT": 0}, "tle": {"line1": "1 66736U 25276BY  25359.25365009  .00011215  00000+0  54926-3 0  9992", "line2": "2 66736  97.4421  70.8385 0002806 151.5892 208.5495 15.18326813  4022"}}, "geometry": {"type": "Point", "coordinates": [-109.42135211777088, -4.711522101129942]}}]}